OBJECT_NAME,OBJECT_ID,EPOCH,MEAN_MOTION,ECCENTRICITY,INCLINATION,RA_OF_ASC_NODE,ARG_OF_PERICENTER,MEAN_ANOMALY,EPHEMERIS_TYPE,CLASSIFICATION_TYPE,NORAD_CAT_ID,ELEMENT_SET_NO,REV_AT_EPOCH,BSTAR,MEAN_MOTION_DOT,MEAN_MOTION_DDOT
SL-8 R/B,1985-006B,2026-07-17T23:42:15.869088,14.37846244,.0019259,74.0455,21.3817,264.0000,210.9413,0,U,15483,999,17275,.48457185E-4,.12E-5,0
SL-12 R/B(2),1985-042D,2026-07-18T08:18:00.465408,14.22011301,.00373702,71.1068,171.6849,281.5712,247.4621,0,U,15772,999,13296,.52871775E-4,.7E-6,0
SL-14 R/B,1985-069B,2026-07-18T14:30:05.315616,14.86536431,.00202082,82.5258,261.8201,116.7418,243.5869,0,U,15945,999,19228,.18523142E-4,.19E-5,0
SL-16 R/B,1985-097B,2026-07-18T13:41:07.592928,14.16614396,.00057934,71.0005,225.0070,44.7326,126.0378,0,U,16182,999,10576,.1431636E-3,.238E-5,0
SL-14 R/B,1986-006B,2026-07-18T06:36:51.674976,14.86969605,.00757332,82.5284,136.8593,198.5550,161.2904,0,U,16496,999,16861,.22267686E-4,.237E-5,0
COSMOS 1743,1986-034A,2026-07-18T14:24:19.630080,15.69878492,.00055318,82.5274,295.2613,166.2023,193.9391,0,U,16719,999,20071,.3021845E-3,.3623E-3,0
SL-14 R/B,1986-046B,2026-07-18T08:04:21.951552,14.85691920,.00238064,82.4840,316.7430,152.8576,207.3890,0,U,16792,999,14580,.2565149E-4,.248E-5,0
SL-14 R/B,1986-055B,2026-07-18T10:56:56.035968,14.85741502,.00173449,82.5206,3.7299,258.5163,130.5057,0,U,16882,999,13878,.20993843E-4,.207E-5,0
AJISAI (EGS),1986-061A,2026-07-18T14:37:16.555296,12.44516675,.00110811,50.0103,50.7735,260.6245,139.4901,0,U,16908,999,48430,.130768E-5,-.97E-6,0
SL-14 R/B,1987-024B,2026-07-18T09:21:01.333728,14.86233057,.00181098,82.5300,329.9218,183.0403,177.0707,0,U,17567,999,10754,.23593246E-4,.232E-5,0
COSMOS 1833,1987-027A,2026-07-18T01:02:10.009824,14.13067272,.00244388,70.9212,52.0140,4.1424,355.9895,0,U,17589,999,2873,.44031173E-4,.34E-6,0
SL-16 R/B,1987-027B,2026-07-18T09:56:35.141568,14.17174688,.00071756,71.0036,1.0219,278.4101,81.6209,0,U,17590,999,3386,.12622829E-3,.207E-5,0
SL-14 R/B,1987-038B,2026-07-18T09:13:42.507264,14.85462592,.00208741,82.5015,173.6861,92.4714,267.8892,0,U,17912,999,9863,.20486428E-4,.202E-5,0
COSMOS 1844,1987-041A,2026-07-18T05:18:25.233696,14.14581228,.00311232,70.8999,118.8476,190.9429,169.1020,0,U,17973,999,2204,.26403661E-4,.3E-7,0
SL-14 R/B,1987-055B,2026-07-18T11:21:07.390944,14.85728051,.00192371,82.4969,225.7347,303.5678,56.3701,0,U,18153,999,8935,.17187502E-4,.174E-5,0
COSMOS 1867,1987-060A,2026-07-18T06:59:16.853856,14.31518708,.00172286,65.0117,300.9497,281.9745,77.9408,0,U,18187,999,3863,.16893273E-4,-.55E-6,0
SL-14 R/B,1988-001B,2026-07-18T01:45:18.434592,14.85627765,.00183887,82.5118,72.7144,162.4244,197.7613,0,U,18749,999,6138,.19275329E-4,.192E-5,0
COSMOS 1933,1988-020A,2026-07-18T12:42:30.545280,15.18901370,.00059249,82.5140,121.3957,98.9709,261.2196,0,U,18958,999,7008,.9227525E-4,.1957E-4,0
SL-3 R/B,1988-032B,2026-07-18T13:25:31.307232,15.21045582,.00267799,97.5278,182.5762,134.4776,225.8655,0,U,19046,999,7199,.92957369E-4,.2011E-4,0
SL-16 R/B,1988-039B,2026-07-18T14:49:03.925920,14.19631498,.00204303,71.0142,151.6988,143.8598,216.3913,0,U,19120,999,97696,.7458156E-4,.11E-5,0
COSMOS 1953,1988-050A,2026-07-18T11:21:15.450336,15.30362961,.00111838,82.5068,26.4710,29.4528,330.7340,0,U,19210,999,5777,.13630778E-3,.4043E-4,0
SL-8 R/B,1988-053B,2026-07-18T07:03:33.107616,14.38979213,.00198471,74.0454,231.7163,16.3577,63.5796,0,U,19257,999,99538,.41830543E-4,.103E-5,0
COSMOS 1975,1988-093A,2026-07-18T08:39:20.559168,15.29684652,.00124074,82.5207,346.3336,72.6070,287.6526,0,U,19573,999,3937,.12859527E-3,.3739E-4,0
SL-14 R/B,1988-093B,2026-07-18T12:18:00.691200,14.85761172,.00197413,82.5313,279.2379,328.9477,41.4360,0,U,19574,999,2044,.1853234E-4,.186E-5,0
SL-16 R/B,1988-102B,2026-07-18T12:11:43.610496,14.16166838,.00141189,70.9973,236.2360,180.3194,179.7923,0,U,19650,999,94541,.633924E-4,.78E-6,0
INTERCOSMOS 24,1989-080A,2026-07-17T23:45:00.432576,12.59692665,.1187035,82.6053,19.5948,350.4595,7.5610,0,U,20261,999,68320,.28601227E-4,.11E-5,0
SL-14 R/B,1989-080C,2026-07-18T12:32:51.606528,12.50578839,.12288194,82.5931,89.1737,245.6768,101.1343,0,U,20262,999,67650,.14694864E-4,.53E-6,0
DELTA 1 R/B,1989-089B,2026-07-18T11:07:46.383456,14.50748873,.0070581,97.0637,26.0169,69.8762,291.0013,0,U,20323,999,91469,.36283775E-4,.113E-5,0
ARIANE 40 R/B,1990-005H,2026-07-18T04:12:27.143424,14.39941501,.00104693,98.2942,255.8251,165.3070,194.8425,0,U,20443,999,91158,.403525E-4,.85E-6,0
DELTA 2 R/B(1),1990-008B,2026-07-18T13:45:59.860800,15.74164493,.00571191,35.5998,24.8567,48.2970,312.2639,0,U,20453,999,94664,.48843904E-3,.81373E-3,0
