SL-8 R/B                
1 15483U 85006B   26198.98768367  .00000120  00000+0  48457-4 0  9994
2 15483  74.0455  21.3817 0019259 264.0000 210.9413 14.37846244172753
SL-12 R/B(2)            
1 15772U 85042D   26199.34583872  .00000070  00000+0  52872-4 0  9992
2 15772  71.1068 171.6849 0037370 281.5712 247.4621 14.22011301132961
SL-14 R/B               
1 15945U 85069B   26199.60422819  .00000190  00000+0  18523-4 0  9993
2 15945  82.5258 261.8201 0020208 116.7418 243.5869 14.86536431192286
SL-16 R/B               
1 16182U 85097B   26199.57022677  .00000238  00000+0  14316-3 0  9990
2 16182  71.0005 225.0070 0005793  44.7326 126.0378 14.16614396105766
SL-14 R/B               
1 16496U 86006B   26199.27559809  .00000237  00000+0  22268-4 0  9993
2 16496  82.5284 136.8593 0075733 198.5550 161.2904 14.86969605168619
COSMOS 1743             
1 16719U 86034A   26199.60022720  .00036230  00000+0  30218-3 0  9991
2 16719  82.5274 295.2613 0005531 166.2023 193.9391 15.69878492200710
SL-14 R/B               
1 16792U 86046B   26199.33636518  .00000248  00000+0  25651-4 0  9997
2 16792  82.4840 316.7430 0023806 152.8576 207.3890 14.85691920145802
SL-14 R/B               
1 16882U 86055B   26199.45620412  .00000207  00000+0  20994-4 0  9996
2 16882  82.5206   3.7299 0017344 258.5163 130.5057 14.85741502138784
AJISAI (EGS)            
1 16908U 86061A   26199.60921939 -.00000097  00000+0  13077-5 0  9990
2 16908  50.0103  50.7735 0011081 260.6245 139.4901 12.44516675484305
SL-14 R/B               
1 17567U 87024B   26199.38959877  .00000232  00000+0  23593-4 0  9992
2 17567  82.5300 329.9218 0018109 183.0403 177.0707 14.86233057107543
COSMOS 1833             
1 17589U 87027A   26199.04317141  .00000034  00000+0  44031-4 0  9994
2 17589  70.9212  52.0140 0024438   4.1424 355.9895 14.13067272 28738
SL-16 R/B               
1 17590U 87027B   26199.41429562  .00000207  00000+0  12623-3 0  9991
2 17590  71.0036   1.0219 0007175 278.4101  81.6209 14.17174688 33860
SL-14 R/B               
1 17912U 87038B   26199.38451976  .00000202  00000+0  20486-4 0  9993
2 17912  82.5015 173.6861 0020874  92.4714 267.8892 14.85462592 98637
COSMOS 1844             
1 17973U 87041A   26199.22112539  .00000003  00000+0  26404-4 0  9991
2 17973  70.8999 118.8476 0031123 190.9429 169.1020 14.14581228 22043
SL-14 R/B               
1 18153U 87055B   26199.47300221  .00000174  00000+0  17188-4 0  9999
2 18153  82.4969 225.7347 0019237 303.5678  56.3701 14.85728051 89350
COSMOS 1867             
1 18187U 87060A   26199.29116729 -.00000055  00000+0  16893-4 0  9991
2 18187  65.0117 300.9497 0017228 281.9745  77.9408 14.31518708 38638
SL-14 R/B               
1 18749U 88001B   26199.07313003  .00000192  00000+0  19275-4 0  9999
2 18749  82.5118  72.7144 0018388 162.4244 197.7613 14.85627765 61385
COSMOS 1933             
1 18958U 88020A   26199.52952020  .00001957  00000+0  92275-4 0  9991
2 18958  82.5140 121.3957 0005924  98.9709 261.2196 15.18901370 70080
SL-3 R/B                
1 19046U 88032B   26199.55939013  .00002011  00000+0  92957-4 0  9992
2 19046  97.5278 182.5762 0026779 134.4776 225.8655 15.21045582 71996
SL-16 R/B               
1 19120U 88039B   26199.61740655  .00000110  00000+0  74582-4 0  9993
2 19120  71.0142 151.6988 0020430 143.8598 216.3913 14.19631498976963
COSMOS 1953             
1 19210U 88050A   26199.47309549  .00004043  00000+0  13631-3 0  9999
2 19210  82.5068  26.4710 0011183  29.4528 330.7340 15.30362961 57770
SL-8 R/B                
1 19257U 88053B   26199.29413319  .00000103  00000+0  41831-4 0  9991
2 19257  74.0454 231.7163 0019847  16.3577  63.5796 14.38979213995388
COSMOS 1975             
1 19573U 88093A   26199.36065462  .00003739  00000+0  12860-3 0  9993
2 19573  82.5207 346.3336 0012407  72.6070 287.6526 15.29684652 39371
SL-14 R/B               
1 19574U 88093B   26199.51250800  .00000186  00000+0  18532-4 0  9999
2 19574  82.5313 279.2379 0019741 328.9477  41.4360 14.85761172 20441
SL-16 R/B               
1 19650U 88102B   26199.50814364  .00000078  00000+0  63392-4 0  9999
2 19650  70.9973 236.2360 0014118 180.3194 179.7923 14.16166838945416
INTERCOSMOS 24          
1 20261U 89080A   26198.98958834  .00000110  00000+0  28601-4 0  9998
2 20261  82.6053  19.5948 1187035 350.4595   7.5610 12.59692665683208
SL-14 R/B               
1 20262U 89080C   26199.52281952  .00000053  00000+0  14695-4 0  9994
2 20262  82.5931  89.1737 1228819 245.6768 101.1343 12.50578839676501
DELTA 1 R/B             
1 20323U 89089B   26199.46373129  .00000113  00000+0  36284-4 0  9997
2 20323  97.0637  26.0169 0070581  69.8762 291.0013 14.50748873914699
ARIANE 40 R/B           
1 20443U 90005H   26199.17531416  .00000085  00000+0  40352-4 0  9992
2 20443  98.2942 255.8251 0010469 165.3070 194.8425 14.39941501911583
DELTA 2 R/B(1)          
1 20453U 90008B   26199.57360950  .00081373  00000+0  48844-3 0  9995
2 20453  35.5998  24.8567 0057119  48.2970 312.2639 15.74164493946649
